[{"OBJECT_NAME":"STARLINK-5766","OBJECT_ID":"2023-042AR","EPOCH":"2026-03-09T06:47:42.926208","MEAN_MOTION":15.03167581,"ECCENTRICITY":0.00023892,"INCLINATION":42.9974,"RA_OF_ASC_NODE":45.7717,"ARG_OF_PERICENTER":188.7608,"MEAN_ANOMALY":171.3193,"EPHEMERIS_TYPE":0,"CLASSIFICATION_TYPE":"U","NORAD_CAT_ID":56025,"ELEMENT_SET_NO":999,"REV_AT_EPOCH":16299,"BSTAR":0.005261799,"MEAN_MOTION_DOT":0.00072833,"MEAN_MOTION_DDOT":0},{"OBJECT_NAME":"STARLING 2","OBJECT_ID":"2023-100B","EPOCH":"2026-03-09T22:50:31.935264","MEAN_MOTION":15.06172687,"ECCENTRICITY":0.00065493,"INCLINATION":99.5117,"RA_OF_ASC_NODE":63.5956,"ARG_OF_PERICENTER":83.1191,"MEAN_ANOMALY":277.0775,"EPHEMERIS_TYPE":0,"CLASSIFICATION_TYPE":"U","NORAD_CAT_ID":57387,"ELEMENT_SET_NO":999,"REV_AT_EPOCH":14496,"BSTAR":0.00017665492,"MEAN_MOTION_DOT":2.498e-5,"MEAN_MOTION_DDOT":0}]
